OBJECT_NAME,OBJECT_ID,EPOCH,MEAN_MOTION,ECCENTRICITY,INCLINATION,RA_OF_ASC_NODE,ARG_OF_PERICENTER,MEAN_ANOMALY,EPHEMERIS_TYPE,CLASSIFICATION_TYPE,NORAD_CAT_ID,ELEMENT_SET_NO,REV_AT_EPOCH,BSTAR,MEAN_MOTION_DOT,MEAN_MOTION_DDOT
ONEWEB-0130,2020-100U,2026-06-27T04:14:47.380128,13.12440262,.00018311,87.8953,348.6655,95.9463,264.1874,0,U,47276,999,26595,-.54107261E-3,-.182E-5,0
ONEWEB-0131,2020-100V,2026-06-27T00:30:21.222144,13.12443461,.00016433,87.8942,348.7136,95.6353,264.4963,0,U,47277,999,26597,-.1168089E-4,.9E-7,0
ONEWEB-0132,2020-100W,2026-06-27T04:51:22.077504,13.12443167,.00017424,87.8944,348.6796,93.5742,266.5585,0,U,47278,999,26589,-.15028577E-2,-.528E-5,0
ONEWEB-0133,2020-100X,2026-06-27T05:15:34.979904,13.12443205,.00016639,87.8955,348.6535,94.3993,265.7326,0,U,47279,999,26605,.75651306E-3,.285E-5,0
ONEWEB-0134,2020-100Y,2026-06-27T04:31:50.828736,13.12441184,.00018131,87.8956,348.6566,101.3367,258.7965,0,U,47280,999,26602,-.12405189E-2,-.434E-5,0
ONEWEB-0135,2020-100Z,2026-06-27T05:40:10.718688,13.12441573,.00016869,87.8943,348.6688,102.0658,258.0660,0,U,47281,999,26605,.9939946E-3,.37E-5,0
ONEWEB-0136,2020-100AA,2026-06-27T04:17:13.199136,13.12440926,.00018256,87.8951,348.6624,103.1432,256.9901,0,U,47282,999,26597,-.48055795E-3,-.16E-5,0
ONEWEB-0137,2020-100AB,2026-06-27T05:06:01.331424,13.12443860,.0001925,87.8955,348.6660,89.4725,270.6624,0,U,47283,999,26588,-.38285585E-4,-.1E-7,0
ONEWEB-0138,2020-100AC,2026-06-27T04:34:17.263776,13.12455268,.00015734,87.8952,348.6754,96.9525,263.1783,0,U,47284,999,26596,-.90945651E-2,-.3258E-4,0
ONEWEB-0139,2020-100AD,2026-06-27T05:33:03.975264,13.12441666,.00018512,87.8951,348.6538,94.3394,265.7946,0,U,47285,999,26604,.13224623E-2,.488E-5,0
ONEWEB-0140,2020-100AE,2026-06-27T04:26:58.591968,13.12440609,.00016557,87.8952,348.6538,92.5957,267.5362,0,U,47286,999,26600,-.10993745E-2,-.383E-5,0
ONEWEB-0141,2020-100AF,2026-06-27T05:32:39.871392,13.12441680,.00020681,87.8952,348.6497,87.5435,272.5930,0,U,47287,999,26599,.11260841E-2,.418E-5,0
ONEWEB-0142,2020-100AG,2026-06-27T05:16:00.162048,13.12444760,.00022349,87.8946,348.6730,94.9374,265.2010,0,U,47288,999,26598,.74433632E-3,.281E-5,0
ONEWEB-0143,2020-100AH,2026-06-27T00:01:04.810368,13.12442071,.00018426,87.8951,348.7157,91.7342,268.3998,0,U,47289,999,26593,.1129019E-2,.419E-5,0
ONEWEB-0144,2020-100AJ,2026-06-27T04:48:55.945728,13.12445131,.0002039,87.8956,348.6504,102.1779,257.9578,0,U,47290,999,26588,-.97434977E-3,-.338E-5,0
ONEWEB-0145,2020-100AK,2026-06-27T00:27:54.388800,13.12440254,.00019155,87.8946,348.7132,94.7632,265.3716,0,U,47291,999,26605,-.27216074E-4,.3E-7,0
ONEWEB-0146,2020-100AL,2026-06-27T04:02:35.717280,13.12440773,.00015419,87.8953,348.6759,85.4515,274.6789,0,U,47292,999,26598,.51823039E-3,.199E-5,0
ONEWEB-0147,2020-100AM,2026-06-27T05:03:35.057088,13.12442825,.00017185,87.8953,348.6494,96.6893,263.4431,0,U,47293,999,26588,-.3398867E-3,-.11E-5,0
ONEWEB-0115,2021-025A,2026-06-27T07:22:34.390272,13.13469390,.00017714,87.8966,318.2085,97.3447,262.7883,0,U,48042,999,25492,.30243793E-3,.123E-5,0
ONEWEB-0152,2021-025B,2026-06-27T02:12:58.325472,13.13470024,.00017355,87.8973,318.2485,96.4021,263.7306,0,U,48043,999,25485,-.28478206E-3,-.91E-6,0
ONEWEB-0153,2021-025C,2026-06-26T22:01:53.306976,13.13471025,.0001939,87.8962,318.2854,98.8499,261.2850,0,U,48044,999,25482,.75449E-3,.288E-5,0
ONEWEB-0154,2021-025D,2026-06-27T07:05:29.639616,13.13468795,.00017117,87.8968,318.2084,102.7625,257.3695,0,U,48045,999,25483,.93428519E-3,.354E-5,0
ONEWEB-0116,2021-025E,2026-06-27T02:32:29.723712,13.13468709,.00023474,87.8940,318.2422,92.9067,267.2331,0,U,48046,999,25495,.97618455E-3,.369E-5,0
ONEWEB-0150,2021-025F,2026-06-27T01:58:21.182304,13.13469958,.00019848,87.8972,318.2452,93.2716,266.8640,0,U,48047,999,25484,.47118559E-3,.185E-5,0
ONEWEB-0107,2021-025G,2026-06-27T07:29:52.656000,13.13470193,.0002116,87.8972,318.1952,101.2840,258.8527,0,U,48048,999,25485,.52542191E-3,.205E-5,0
ONEWEB-0101,2021-025H,2026-06-26T21:27:46.350144,13.13471004,.000165,87.8956,318.2919,100.9526,259.1789,0,U,48049,999,25477,.90238E-3,.342E-5,0
ONEWEB-0113,2021-025J,2026-06-27T07:06:38.416608,13.13892615,.00018266,87.8965,318.1225,93.9451,266.1888,0,U,48050,999,25493,.83982525E-3,.321E-5,0
ONEWEB-0112,2021-025K,2026-06-27T02:08:05.715456,13.13471121,.00019434,87.8971,318.2377,105.8424,254.2920,0,U,48051,999,25489,.31868629E-3,.129E-5,0
ONEWEB-0156,2021-025L,2026-06-27T02:20:18.539520,13.13452722,.0002022,87.8974,318.2453,96.8167,263.3192,0,U,48052,999,25487,-.65757802E-2,-.2387E-4,0
ONEWEB-0161,2021-025M,2026-06-26T22:04:19.386048,13.13470793,.0002062,87.8969,318.2824,99.1872,260.9490,0,U,48053,999,25478,.75278E-3,.288E-5,0
