ONEWEB-0130             
1 47276U 20100U   26178.17693727 -.00000182  00000+0 -54107-3 0  9997
2 47276  87.8953 348.6655 0001831  95.9463 264.1874 13.12440262265958
ONEWEB-0131             
1 47277U 20100V   26178.02107896  .00000009  00000+0 -11681-4 0  9997
2 47277  87.8942 348.7136 0001643  95.6353 264.4963 13.12443461265976
ONEWEB-0132             
1 47278U 20100W   26178.20233886 -.00000528  00000+0 -15029-2 0  9992
2 47278  87.8944 348.6796 0001742  93.5742 266.5585 13.12443167265896
ONEWEB-0133             
1 47279U 20100X   26178.21915486  .00000285  00000+0  75651-3 0  9993
2 47279  87.8955 348.6535 0001663  94.3993 265.7326 13.12443205266055
ONEWEB-0134             
1 47280U 20100Y   26178.18878274 -.00000434  00000+0 -12405-2 0  9999
2 47280  87.8956 348.6566 0001813 101.3367 258.7965 13.12441184266025
ONEWEB-0135             
1 47281U 20100Z   26178.23623517  .00000370  00000+0  99399-3 0  9999
2 47281  87.8943 348.6688 0001686 102.0658 258.0660 13.12441573266056
ONEWEB-0136             
1 47282U 20100AA  26178.17862499 -.00000160  00000+0 -48056-3 0  9990
2 47282  87.8951 348.6624 0001825 103.1432 256.9901 13.12440926265979
ONEWEB-0137             
1 47283U 20100AB  26178.21251541 -.00000001  00000+0 -38286-4 0  9995
2 47283  87.8955 348.6660 0001925  89.4725 270.6624 13.12443860265881
ONEWEB-0138             
1 47284U 20100AC  26178.19047759 -.00003258  00000+0 -90946-2 0  9993
2 47284  87.8952 348.6754 0001573  96.9525 263.1783 13.12455268265960
ONEWEB-0139             
1 47285U 20100AD  26178.23129601  .00000488  00000+0  13225-2 0  9991
2 47285  87.8951 348.6538 0001851  94.3394 265.7946 13.12441666266041
ONEWEB-0140             
1 47286U 20100AE  26178.18540037 -.00000383  00000+0 -10994-2 0  9992
2 47286  87.8952 348.6538 0001655  92.5957 267.5362 13.12440609266004
ONEWEB-0141             
1 47287U 20100AF  26178.23101703  .00000418  00000+0  11261-2 0  9997
2 47287  87.8952 348.6497 0002068  87.5435 272.5930 13.12441680265997
ONEWEB-0142             
1 47288U 20100AG  26178.21944632  .00000281  00000+0  74434-3 0  9992
2 47288  87.8946 348.6730 0002234  94.9374 265.2010 13.12444760265989
ONEWEB-0143             
1 47289U 20100AH  26178.00075012  .00000419  00000+0  11290-2 0  9990
2 47289  87.8951 348.7157 0001842  91.7342 268.3998 13.12442071265931
ONEWEB-0144             
1 47290U 20100AJ  26178.20064752 -.00000338  00000+0 -97435-3 0  9991
2 47290  87.8956 348.6504 0002039 102.1779 257.9578 13.12445131265885
ONEWEB-0145             
1 47291U 20100AK  26178.01937950  .00000003  00000+0 -27216-4 0  9999
2 47291  87.8946 348.7132 0001915  94.7632 265.3716 13.12440254266057
ONEWEB-0146             
1 47292U 20100AL  26178.16846895  .00000199  00000+0  51823-3 0  9998
2 47292  87.8953 348.6759 0001541  85.4515 274.6789 13.12440773265982
ONEWEB-0147             
1 47293U 20100AM  26178.21082242 -.00000110  00000+0 -33989-3 0  9991
2 47293  87.8953 348.6494 0001718  96.6893 263.4431 13.12442825265887
ONEWEB-0115             
1 48042U 21025A   26178.30734248  .00000123  00000+0  30244-3 0  9994
2 48042  87.8966 318.2085 0001771  97.3447 262.7883 13.13469390254928
ONEWEB-0152             
1 48043U 21025B   26178.09234173 -.00000091  00000+0 -28478-3 0  9995
2 48043  87.8973 318.2485 0001735  96.4021 263.7306 13.13470024254858
ONEWEB-0153             
1 48044U 21025C   26177.91797809  .00000288  00000+0  75449-3 0  9992
2 48044  87.8962 318.2854 0001939  98.8499 261.2850 13.13471025254824
ONEWEB-0154             
1 48045U 21025D   26178.29548194  .00000354  00000+0  93429-3 0  9998
2 48045  87.8968 318.2084 0001711 102.7625 257.3695 13.13468795254834
ONEWEB-0116             
1 48046U 21025E   26178.10589958  .00000369  00000+0  97618-3 0  9992
2 48046  87.8940 318.2422 0002347  92.9067 267.2331 13.13468709254952
ONEWEB-0150             
1 48047U 21025F   26178.08218961  .00000185  00000+0  47119-3 0  9990
2 48047  87.8972 318.2452 0001984  93.2716 266.8640 13.13469958254845
ONEWEB-0107             
1 48048U 21025G   26178.31241500  .00000205  00000+0  52542-3 0  9991
2 48048  87.8972 318.1952 0002116 101.2840 258.8527 13.13470193254855
ONEWEB-0101             
1 48049U 21025H   26177.89428646  .00000342  00000+0  90238-3 0  9998
2 48049  87.8956 318.2919 0001650 100.9526 259.1789 13.13471004254778
ONEWEB-0113             
1 48050U 21025J   26178.29627797  .00000321  00000+0  83983-3 0  9999
2 48050  87.8965 318.1225 0001826  93.9451 266.1888 13.13892615254933
ONEWEB-0112             
1 48051U 21025K   26178.08895504  .00000129  00000+0  31869-3 0  9992
2 48051  87.8971 318.2377 0001943 105.8424 254.2920 13.13471121254898
ONEWEB-0156             
1 48052U 21025L   26178.09743680 -.00002387  00000+0 -65758-2 0  9994
2 48052  87.8974 318.2453 0002022  96.8167 263.3192 13.13452722254875
ONEWEB-0161             
1 48053U 21025M   26177.91966882  .00000288  00000+0  75278-3 0  9991
2 48053  87.8969 318.2824 0002062  99.1872 260.9490 13.13470793254787
